PROBA-1                 
1 26958U 01049B   23277.44648766  .00003963  00000+0  31663-3 0  9992
2 26958  97.8846 244.9193 0068316 200.2550 159.5960 14.99022790195401
BIRD 2                  
1 26959U 01049C   23277.35800300  .00838525  40497-3  85505-3 0  9999
2 26959  97.7848  58.3070 0005699 275.7439  84.3193 16.10911208220815
CUTE-1 (CO-55)          
1 27844U 03031E   23276.54514195  .00000628  00000+0  29890-3 0  9992
2 27844  98.6808 282.2342 0010001 165.2009 194.9464 14.22896896 51170
CUBESAT XI-IV (CO-57)   
1 27848U 03031J   23276.94579581  .00000549  00000+0  26603-3 0  9991
2 27848  98.6843 283.0014 0009617 179.1846 180.9349 14.22392045 50962
GENESIS 1               
1 29252U 06029A   23276.46133885  .00014334  00000+0  50956-3 0  9997
2 29252  64.5188 309.3818 0010703 213.3334 146.7122 15.29180468951064
GENESIS 2               
1 31789U 07028A   23276.58374830  .00017407  00000+0  61940-3 0  9994
2 31789  64.4947 353.5427 0051552 247.5736 111.9927 15.27827709898019
APRIZESAT 4             
1 35684U 09041D   23276.60806121  .00001387  00000+0  18533-3 0  9995
2 35684  98.2753 310.8680 0044597 272.5338  87.0768 14.80617196765059
APRIZESAT 3             
1 35686U 09041F   23276.83194466  .00003536  00000+0  35868-3 0  9992
2 35686  98.1032  19.1959 0070981  77.7278 283.1875 14.89687179769084
PROBA-2                 
1 36037U 09059B   23277.41896407  .00000585  00000+0  15052-3 0  9995
2 36037  98.2283 100.3055 0014634  87.3947 272.8925 14.53625080738190
APRIZESAT 5             
1 37792U 11044E   23277.43110484  .00002242  00000+0  31944-3 0  9997
2 37792  98.2598 170.3306 0055241 292.1444  67.3907 14.76851480653060
APRIZESAT 6             
1 37793U 11044F   23277.15269272  .00001629  00000+0  25412-3 0  9998
2 37793  98.3353 148.8538 0045877 355.4661 156.3990 14.73659385651758
PROBA-V                 
1 39159U 13021A   23277.32531509  .00000171  00000+0  93609-4 0  9992
2 39159  98.3173 293.1083 0005032 133.0461 227.1141 14.23157109540723
APRIZESAT 7             
1 39416U 13066A   23276.87184011  .00002604  00000+0  30007-3 0  9993
2 39416  97.6335 240.5148 0038085 236.3757 123.3823 14.86026710534334
APRIZESAT 8             
1 39425U 13066K   23277.16294432  .00002820  00000+0  34659-3 0  9992
2 39425  97.6916 233.4145 0048602 289.4175  70.1790 14.82984084533408
BUGSAT-1 (TITA)         
1 40014U 14033E   23276.89362601  .00007101  00000+0  56100-3 0  9998
2 40014  98.1425 300.7753 0033591 271.4545  88.2830 15.00569391507015
SAUDISAT 4              
1 40016U 14033G   23276.92280159  .00001319  00000+0  19319-3 0  9997
2 40016  97.6478  90.9511 0048447  45.7861 314.7313 14.76402118500233
APRIZESAT 9             
1 40018U 14033J   23277.43001935  .00001878  00000+0  30096-3 0  9994
2 40018  97.7690  69.2036 0070949 130.9379 229.7999 14.71160269498443
APRIZESAT 10            
1 40019U 14033K   23277.39304859  .00001941  00000+0  32897-3 0  9993
2 40019  97.8324  60.1070 0082581 183.2154 176.8532 14.68128879497490
TDS 1                   
1 40076U 14037H   23276.72414961  .00008123  00000+0  85260-3 0  9993
2 40076  98.3304 179.5880 0006190 353.5697   6.5438 14.89774003500057
TIANTUO 2               
1 40144U 14053B   23277.43645550  .00022103  00000+0  42035-3 0  9993
2 40144  97.1512 354.5480 0007009 276.5838  83.4615 15.48228033508134
TECHNOSAT               
1 42829U 17042E   23277.43341844  .00004708  00000+0  44284-3 0  9994
2 42829  97.3854 108.3741 0012139 213.0714 146.9749 14.94275748338804
FLYING LAPTOP           
1 42831U 17042G   23276.91116587  .00002454  00000+0  23781-3 0  9998
2 42831  97.3872 108.1117 0012259 217.0055 143.0321 14.93493694338712
HAWK-A                  
1 43765U 18099H   23276.87478858  .00005189  00000+0  41839-3 0  9997
2 43765  97.5636 337.1100 0011225 109.4899 250.7538 15.00271111264033
HAWK-B                  
1 43794U 18099AN  23276.94188433  .00005102  00000+0  41147-3 0  9991
2 43794  97.5634 337.1740 0011189 110.4696 249.7730 15.00268182264035
HAWK-C                  
1 43799U 18099AT  23277.40856989  .00005455  00000+0  43947-3 0  9997
2 43799  97.5629 337.5248 0011058 108.8814 251.3610 15.00276197264108
SALSAT                  
1 46495U 20068K   23276.79035223  .00007966  00000+0  50749-3 0  9990
2 46495  97.7810 226.0776 0017166 108.1915 252.1183 15.08902294165440
HAWK-2C                 
1 47502U 21006CT  23276.91439991  .00018458  00000+0  86068-3 0  9998
2 47502  97.3729 328.3226 0010350  86.7387 273.5032 15.19871356148934
HAWK-2A                 
1 47505U 21006CW  23276.71708155  .00017095  00000+0  79771-3 0  9999
2 47505  97.3730 328.2395 0010272  86.6885 273.5525 15.19862033148906
HAWK-2B                 
1 47508U 21006CZ  23276.71726569  .00017072  00000+0  79652-3 0  9994
2 47508  97.3729 328.1289 0010579  87.7811 272.4635 15.19865283148909
HAWK-3B                 
1 48931U 21059BE  23276.89372167  .00011979  00000+0  52172-3 0  9991
2 48931  97.5995  51.7366 0012541 261.1274  98.8542 15.22300059125815
HAWK-3C                 
1 48948U 21059BX  23277.15639091  .00012209  00000+0  53138-3 0  9991
2 48948  97.6260  54.6754 0013483 264.1720  95.7979 15.22307147125856
HAWK-3A                 
1 48957U 21059CG  23276.95904781  .00011890  00000+0  51764-3 0  9997
2 48957  97.6127  53.1449 0013521 258.5291 101.4427 15.22304304125828
HAWK-4B                 
1 52165U 22033J   23277.21587865  .00016775  00000+0  57180-3 0  9991
2 52165  97.3488 356.4791 0010033 140.7310 219.4660 15.30392384 83904
HAWK-4A                 
1 52167U 22033L   23277.15023318  .00017065  00000+0  58172-3 0  9999
2 52167  97.3439 356.0867 0009465 140.5605 219.6327 15.30393009 83899
HAWK-4C                 
1 52170U 22033P   23277.47700809  .00016716  00000+0  56938-3 0  9995
2 52170  97.3486 356.7221 0011445 128.9911 231.2351 15.30402251 83940
HAWK-5C                 
1 52754U 22057Y   23276.92193044  .00010518  00000+0  51651-3 0  9996
2 52754  97.5648  32.8976 0007971 332.8951  27.1865 15.18232922 75112
HAWK-5B                 
1 52756U 22057AA  23277.31721227  .00010763  00000+0  52821-3 0  9994
2 52756  97.5489  32.2422 0008498 325.3912  34.6768 15.18241821 75175
HAWK-5A                 
1 52757U 22057AB  23277.11926720  .00010559  00000+0  51831-3 0  9991
2 52757  97.5568  32.5665 0008876 329.9118  30.1605 15.18238720 75146
HAWK-6B                 
1 55324U 23011A   23277.41541877  .00006879  00000+0  44603-3 0  9993
2 55324  40.5180 282.6928 0005176 187.3426 172.7304 15.08268015 38085
HAWK-6C                 
1 55326U 23011C   23277.41514636  .00006990  00000+0  45297-3 0  9992
2 55326  40.4866 281.9497 0004972 178.9539 181.1276 15.08270334 38094
HAWK-6A                 
1 55327U 23011D   23276.48798806  .00006247  00000+0  40625-3 0  9997
2 55327  40.5026 287.6284 0004696 168.3874 191.7039 15.08254309 37951
HAWK-7A                 
1 56191U 23054P   23275.63179232  .00013578  00000+0  64341-3 0  9992
2 56191  97.3943 168.9804 0002830 319.6346  40.4678 15.19426523 26522
HAWK-7B                 
1 56193U 23054R   23276.29000741  .00003194  00000+0  15527-3 0  9990
2 56193  97.3672 169.2411 0004229 314.0375  46.0511 15.19124174 26622
HAWK-7C                 
1 56200U 23054Y   23276.48766351  .00003584  00000+0  17374-3 0  9991
2 56200  97.3853 169.6333 0003792 279.5629  80.5177 15.19152242 26651
